OBJECT_NAME,OBJECT_ID,EPOCH,MEAN_MOTION,ECCENTRICITY,INCLINATION,RA_OF_ASC_NODE,ARG_OF_PERICENTER,MEAN_ANOMALY,EPHEMERIS_TYPE,CLASSIFICATION_TYPE,NORAD_CAT_ID,ELEMENT_SET_NO,REV_AT_EPOCH,BSTAR,MEAN_MOTION_DOT,MEAN_MOTION_DDOT
SKYSAT-C1,2016-040C,2026-07-17T01:01:50.629440,15.36766876,.00002619,96.9547,228.1510,236.3178,123.8043,0,U,41601,999,56245,.14289609E-3,.5058E-4,0
LAPAN-A3,2016-040E,2026-07-17T14:30:55.793088,15.33286199,.00082545,97.1506,193.7571,265.5025,94.5275,0,U,41603,999,55947,.53027079E-4,.1632E-4,0
GAOFEN-3,2016-049A,2026-07-17T14:38:47.241600,14.42218609,.00017677,98.4012,205.9376,82.5761,277.5629,0,U,41727,999,52303,-.11691389E-4,-.82E-6,0
SKYSAT-C4,2016-058B,2026-07-17T01:08:12.623712,15.49475207,.00034782,96.9161,218.5856,114.9854,245.1760,0,U,41771,999,55009,.18272584E-3,.9969E-4,0
SKYSAT-C5,2016-058C,2026-07-17T02:28:48.363456,15.33734076,.00027534,97.0451,237.4000,155.5861,204.5514,0,U,41772,999,54833,.11912464E-3,.3812E-4,0
SKYSAT-C2,2016-058D,2026-07-17T07:07:48.027360,15.42708898,.00011135,97.0158,219.2705,343.1238,16.9973,0,U,41773,999,54969,.15146324E-3,.6528E-4,0
SKYSAT-C3,2016-058E,2026-07-17T00:54:03.865536,15.53761650,.00026234,96.8991,227.7582,130.7873,229.3610,0,U,41774,999,55074,.2266722E-3,.14444E-3,0
ALSAT-1B,2016-059C,2026-07-17T14:52:12.446400,14.72295861,.00104275,97.7750,206.0706,122.8262,237.3952,0,U,41785,999,52505,.44576412E-4,.235E-5,0
PATHFINDER 1,2016-059E,2026-07-16T23:56:37.963104,14.67694301,.00298772,97.8177,195.9301,110.2471,250.1951,0,U,41787,999,52408,.53122775E-4,.258E-5,0
SCATSAT 1,2016-059H,2026-07-17T02:31:36.660288,14.79589993,.00553436,98.1177,262.1782,150.4877,209.9478,0,U,41790,999,10601,.90577876E-4,.639E-5,0
GOKTURK 1A,2016-073A,2026-07-17T14:48:19.576800,14.62793807,.00014103,98.1212,92.8091,81.7664,278.3697,0,U,41875,999,51327,.19598647E-4,.53E-6,0
RESOURCESAT-2A,2016-074A,2026-07-17T14:48:08.561664,14.21610237,.00022885,98.7520,271.8709,22.5020,337.6257,0,U,41877,999,49862,.21841755E-3,.435E-5,0
CARTOSAT-2D,2017-008A,2026-07-17T14:05:54.936096,15.19294188,.0006174,97.4084,257.3228,131.9489,228.2273,0,U,41948,999,52219,.10309665E-3,.2109E-4,0
SENTINEL-2B,2017-013A,2026-07-17T15:03:00.754848,14.30816111,.000121,98.5685,272.9706,90.3557,269.7764,0,U,42063,999,48899,.97284193E-4,.211E-5,0
CARTOSAT-2E,2017-036C,2026-07-17T14:31:33.934368,15.19266308,.00034945,97.4254,257.9036,178.4650,181.6596,0,U,42767,999,50276,.11735897E-3,.2407E-4,0
FORMOSAT-5,2017-049A,2026-07-17T14:29:04.360416,14.50908185,.00111685,98.2245,273.2362,356.3908,3.7205,0,U,42920,999,47108,.19043057E-4,.31E-6,0
SENTINEL-5P,2017-064A,2026-07-17T13:57:03.888864,14.19523419,.00011681,98.7929,140.4976,93.9787,266.1523,0,U,42969,999,45387,.23909026E-4,.6E-7,0
SKYSAT-C11,2017-068A,2026-07-16T23:23:07.127520,15.59388848,.00011959,97.4385,348.1412,155.9503,204.1810,0,U,42987,999,48788,.22542888E-3,.17693E-3,0
SKYSAT-C10,2017-068B,2026-07-16T21:21:43.875360,15.35136658,.00014923,97.4545,335.0424,111.5176,248.6227,0,U,42988,999,48691,.17053822E-3,.5733E-4,0
SKYSAT-C9,2017-068C,2026-07-17T08:25:06.451104,15.42246101,.00084626,97.4465,336.7357,37.8193,322.3648,0,U,42989,999,48740,.16642932E-3,.7071E-4,0
SKYSAT-C8,2017-068D,2026-07-17T15:53:02.819616,15.37519551,.00012448,97.4563,335.7400,104.5664,255.5718,0,U,42990,999,48699,.15332016E-3,.5558E-4,0
SKYSAT-C7,2017-068E,2026-07-17T15:45:12.931488,15.37469414,.00055319,97.4574,336.7261,12.9182,347.2203,0,U,42991,999,48705,.14807187E-3,.5358E-4,0
SKYSAT-C6,2017-068F,2026-07-16T22:53:50.652672,15.34187293,.00050717,97.4611,335.8590,85.1818,275.0004,0,U,42992,999,48688,.14802371E-3,.4818E-4,0
CARTOSAT-2F,2018-004A,2026-07-17T15:18:36.165312,15.19185932,.00023712,97.4766,257.9727,128.9746,231.1701,0,U,43111,999,47195,.14593584E-3,.3001E-4,0
GAOFEN-1 02,2018-031A,2026-07-17T14:12:34.320096,14.76473355,.00014752,98.0510,261.0318,271.7819,88.3222,0,U,43259,999,44718,.51786992E-4,.309E-5,0
GAOFEN-1 03,2018-031B,2026-07-17T15:18:38.633760,14.76464263,.00022163,98.0502,260.9323,8.6084,351.5163,0,U,43260,999,44718,.49322451E-4,.292E-5,0
GAOFEN-1 04,2018-031D,2026-07-17T14:43:39.260640,14.76442149,.00010899,98.0511,261.1030,50.0528,310.0777,0,U,43262,999,44717,.21381757E-3,.1436E-4,0
SENTINEL-3B,2018-039A,2026-07-17T04:55:36.576480,14.26736730,.00011929,98.6235,265.3046,119.8366,240.2933,0,U,43437,999,42840,.38460351E-4,.49E-6,0
GAOFEN-5 01,2018-043A,2026-07-16T22:18:50.999616,14.60623956,.00019962,98.4591,170.1443,28.3067,331.8241,0,U,43461,999,43603,.36363198E-4,.128E-5,0
GAOFEN-6,2018-048A,2026-07-17T15:16:18.844608,14.76386108,.00120966,98.0954,261.3439,74.5982,285.6563,0,U,43484,999,43788,.71076915E-4,.442E-5,0
